NORAD_CAT_ID,OBJECT_NAME,OBJECT_TYPE,EPOCH,MEAN_MOTION,ECCENTRICITY,INCLINATION,RA_OF_ASC_NODE,ARG_OF_PERICENTER,MEAN_ANOMALY,BSTAR,MEAN_MOTION_DOT,MEAN_MOTION_DDOT,TLE_LINE0,TLE_LINE1,TLE_LINE2,SEMIMAJOR_AXIS,PERIOD,APOGEE,PERIGEE,DECAYED
54066.0,STARLINK-5151,PAYLOAD,2023-06-06 02:23:32,15.08837516,0.000104,53.2148,187.2577,81.5945,278.5165,-3.9184e-05,-9.11e-06,0.0,0 STARLINK-5151,1 54066U 22136R   23157.09968470 -.00000911  00000-0 -39184-4 0  9998,2 54066  53.2148 187.2577 0001040  81.5945 278.5165 15.08837516 35219,6917.888,95.438,540.472,539.034,0.0
54066.0,STARLINK-5151,PAYLOAD,2023-06-06 11:55:51,15.08835958,9.9e-05,53.2152,185.4739,82.2109,277.8996,-4.4513e-05,-9.96e-06,0.0,0 STARLINK-5151,1 54066U 22136R   23157.49712605 -.00000996  00000-0 -44513-4 0  9994,2 54066  53.2152 185.4739 0000990  82.2109 277.8996 15.08835958 34791,6917.893,95.438,540.443,539.073,0.0
54066.0,STARLINK-5151,PAYLOAD,2023-06-07 07:00:28,15.08840577,9.2e-05,53.2152,181.9057,82.4758,277.6338,1.3749e-05,-6.9e-07,0.0,0 STARLINK-5151,1 54066U 22136R   23158.29200140 -.00000069  00000-0  13749-4 0  9996,2 54066  53.2152 181.9057 0000920  82.4758 277.6338 15.08840577 35398,6917.879,95.438,540.38,539.107,0.0
54066.0,STARLINK-5151,PAYLOAD,2023-06-08 10:02:02,15.08834289,9.11e-05,53.2152,176.8508,80.3072,279.8023,6.1167e-05,6.86e-06,0.0,0 STARLINK-5151,1 54066U 22136R   23159.41808658  .00000686  00000-0  61167-4 0  9990,2 54066  53.2152 176.8508 0000911  80.3072 279.8023 15.08834289 35565,6917.898,95.438,540.393,539.133,0.0
54066.0,STARLINK-5151,PAYLOAD,2023-06-09 09:52:49,15.08839584,9.19e-05,53.2152,172.3899,81.046,279.0637,4.1231e-05,3.69e-06,0.0,0 STARLINK-5151,1 54066U 22136R   23160.41168564  .00000369  00000-0  41231-4 0  9995,2 54066  53.2152 172.3899 0000919  81.0460 279.0637 15.08839584 35236,6917.882,95.438,540.382,539.111,0.0
54066.0,STARLINK-5151,PAYLOAD,2023-06-10 01:46:41,15.08838115,9.14e-05,53.2151,169.4159,81.7545,278.3551,4.2366e-05,3.87e-06,0.0,0 STARLINK-5151,1 54066U 22136R   23161.07408697  .00000387  00000-0  42366-4 0  9992,2 54066  53.2151 169.4159 0000914  81.7545 278.3551 15.08838115 35817,6917.886,95.438,540.383,539.119,0.0
54066.0,STARLINK-5151,PAYLOAD,2023-06-10 09:43:36,15.08839531,9.27e-05,53.215,167.929,80.2908,279.8189,5.0279e-05,5.13e-06,0.0,0 STARLINK-5151,1 54066U 22136R   23161.40528616  .00000513  00000-0  50279-4 0  9996,2 54066  53.2150 167.9290 0000927  80.2908 279.8189 15.08839531 35384,6917.882,95.438,540.388,539.106,0.0
54066.0,STARLINK-5151,PAYLOAD,2023-06-10 17:40:32,15.08839521,9.23e-05,53.2151,166.4422,81.9844,278.1253,4.722e-05,4.64e-06,0.0,0 STARLINK-5151,1 54066U 22136R   23161.73648628  .00000464  00000-0  47220-4 0  9995,2 54066  53.2151 166.4422 0000923  81.9844 278.1253 15.08839521 35438,6917.882,95.438,540.385,539.108,0.0
54066.0,STARLINK-5151,PAYLOAD,2023-06-11 09:34:23,15.08840441,9.43e-05,53.2149,163.4684,82.9194,277.1906,3.9785e-05,3.46e-06,0.0,0 STARLINK-5151,1 54066U 22136R   23162.39888618  .00000346  00000-0  39785-4 0  9999,2 54066  53.2149 163.4684 0000943  82.9194 277.1906 15.08840441 36015,6917.879,95.438,540.396,539.092,0.0
54066.0,STARLINK-5151,PAYLOAD,2023-06-11 17:31:19,15.08841337,9.36e-05,53.215,161.9816,82.5631,277.5467,4.6349e-05,4.5e-06,0.0,0 STARLINK-5151,1 54066U 22136R   23162.73008521  .00000450  00000-0  46349-4 0  9994,2 54066  53.2150 161.9816 0000936  82.5631 277.5467 15.08841337 35583,6917.876,95.437,540.389,539.094,0.0
54066.0,STARLINK-5151,PAYLOAD,2023-06-12 06:14:24,15.08841361,9.5e-05,53.215,159.6025,82.1555,277.9545,4.575e-05,4.4e-06,0.0,0 STARLINK-5151,1 54066U 22136R   23163.26000474  .00000440  00000-0  45750-4 0  9996,2 54066  53.2150 159.6025 0000950  82.1555 277.9545 15.08841361 35663,6917.876,95.437,540.398,539.084,0.0
54066.0,STARLINK-5151,PAYLOAD,2023-06-12 17:22:06,15.08839573,9.42e-05,53.2149,157.521,80.9299,279.18,2.7829e-05,1.55e-06,0.0,0 STARLINK-5151,1 54066U 22136R   23163.72368611  .00000155  00000-0  27829-4 0  9997,2 54066  53.2149 157.5210 0000942  80.9299 279.1800 15.08839573 36218,6917.882,95.438,540.398,539.095,0.0
54066.0,STARLINK-5151,PAYLOAD,2023-06-13 09:15:58,15.08834245,9.76e-05,53.2152,154.5475,81.5848,278.5255,-1.0859e-05,-4.61e-06,0.0,0 STARLINK-5151,1 54066U 22136R   23164.38609186 -.00000461  00000-0 -10859-4 0  9992,2 54066  53.2152 154.5475 0000976  81.5848 278.5255 15.08834245 36315,6917.898,95.438,540.438,539.088,0.0
54066.0,STARLINK-5151,PAYLOAD,2023-06-14 05:55:58,15.08841474,0.0001058,53.2155,150.682,84.1726,275.9387,2.8362e-05,1.64e-06,0.0,0 STARLINK-5151,1 54066U 22136R   23165.24720734  .00000164  00000-0  28362-4 0  9997,2 54066  53.2155 150.6820 0001058  84.1726 275.9387 15.08841474 36448,6917.876,95.437,540.473,539.009,0.0
54066.0,STARLINK-5151,PAYLOAD,2023-06-15 02:36:00,15.08833596,0.000108,53.2157,146.8163,82.3747,277.7367,4.3181e-05,3.99e-06,0.0,0 STARLINK-5151,1 54066U 22136R   23166.10833364  .00000399  00000-0  43181-4 0  9993,2 54066  53.2157 146.8163 0001080  82.3747 277.7367 15.08833596 36573,6917.9,95.438,540.512,539.018,0.0
54066.0,STARLINK-5151,PAYLOAD,2023-06-15 08:57:32,15.08836735,0.0001089,53.2157,145.6268,81.449,278.6625,5.2128e-05,5.42e-06,0.0,0 STARLINK-5151,1 54066U 22136R   23166.37329215  .00000542  00000-0  52128-4 0  9998,2 54066  53.2157 145.6268 0001089  81.4490 278.6625 15.08836735 36137,6917.89,95.438,540.509,539.002,0.0
54066.0,STARLINK-5151,PAYLOAD,2023-06-15 15:19:05,15.08834384,0.0001108,53.2158,144.4367,79.2647,280.847,2.9693e-05,1.85e-06,0.0,0 STARLINK-5151,1 54066U 22136R   23166.63825528  .00000185  00000-0  29693-4 0  9999,2 54066  53.2158 144.4367 0001108  79.2647 280.8470 15.08834384 36171,6917.898,95.438,540.529,538.996,0.0
54066.0,STARLINK-5151,PAYLOAD,2023-06-16 08:48:19,15.08843351,0.0001121,53.2159,141.1663,81.6814,278.4305,6.0932e-05,6.82e-06,0.0,0 STARLINK-5151,1 54066U 22136R   23167.36688999  .00000682  00000-0  60932-4 0  9992,2 54066  53.2159 141.1663 0001121  81.6814 278.4305 15.08843351 36762,6917.87,95.437,540.511,538.96,0.0
54066.0,STARLINK-5151,PAYLOAD,2023-06-16 15:09:52,15.08839098,0.0001114,53.2158,139.9768,82.6715,277.4404,4.6974e-05,4.6e-06,0.0,0 STARLINK-5151,1 54066U 22136R   23167.63185310  .00000460  00000-0  46974-4 0  9995,2 54066  53.2158 139.9768 0001114  82.6715 277.4404 15.08839098 36329,6917.883,95.438,540.519,538.977,0.0
54066.0,STARLINK-5151,PAYLOAD,2023-06-17 05:28:19,15.08844421,0.0001111,53.2158,137.3003,94.632,265.4799,8.6642e-05,1.092e-05,0.0,0 STARLINK-5151,1 54066U 22136R   23168.22800803  .00001092  00000-0  86642-4 0  9990,2 54066  53.2158 137.3003 0001111  94.6320 265.4799 15.08844421 36415,6917.867,95.437,540.5,538.963,0.0
54066.0,STARLINK-5151,PAYLOAD,2023-06-17 15:00:39,15.08840054,0.0001119,53.2161,135.516,82.7993,277.3127,4.9482e-05,5e-06,0.0,0 STARLINK-5151,1 54066U 22136R   23168.62545179  .00000500  00000-0  49482-4 0  9990,2 54066  53.2161 135.5160 0001119  82.7993 277.3127 15.08840054 36959,6917.88,95.438,540.519,538.971,0.0
54066.0,STARLINK-5151,PAYLOAD,2023-06-17 21:22:11,15.08838489,0.0001168,53.2157,134.327,85.9688,274.1437,6.6726e-05,7.74e-06,0.0,0 STARLINK-5151,1 54066U 22136R   23168.89041262  .00000774  00000-0  66726-4 0  9996,2 54066  53.2157 134.3270 0001168  85.9688 274.1437 15.08838489 36513,6917.885,95.438,540.558,538.942,0.0
54066.0,STARLINK-5151,PAYLOAD,2023-06-17 22:57:35,15.08831921,0.0001104,53.2157,134.0292,95.9122,264.1996,-2.337e-05,-6.6e-06,0.0,0 STARLINK-5151,1 54066U 22136R   23168.95666044 -.00000660  00000-0 -23370-4 0  9998,2 54066  53.2157 134.0292 0001104  95.9122 264.1996 15.08831921 37006,6917.905,95.438,540.534,539.006,0.0
54066.0,STARLINK-5151,PAYLOAD,2023-06-18 03:43:44,15.08831915,0.000116,53.2159,133.1367,86.7968,273.3157,-5.7747e-07,-2.97e-06,0.0,0 STARLINK-5151,1 54066U 22136R   23169.15538099 -.00000297  00000-0 -57747-6 0  9992,2 54066  53.2159 133.1367 0001160  86.7968 273.3157 15.08831915 36552,6917.905,95.438,540.573,538.968,0.0
54066.0,STARLINK-5151,PAYLOAD,2023-06-18 21:12:59,15.08836534,0.0001119,53.2161,129.8658,87.0156,273.0964,9.4542e-06,-1.37e-06,0.0,0 STARLINK-5151,1 54066U 22136R   23169.88401928 -.00000137  00000-0  94542-5 0  9997,2 54066  53.2161 129.8658 0001119  87.0156 273.0964 15.08836534 36664,6917.891,95.438,540.53,538.982,0.0
54066.0,STARLINK-5151,PAYLOAD,2023-06-19 03:34:31,15.08843437,0.000113,53.216,128.6767,89.2965,270.8156,5.807e-05,6.37e-06,0.0,0 STARLINK-5151,1 54066U 22136R   23170.14897346  .00000637  00000-0  58070-4 0  9990,2 54066  53.2160 128.6767 0001130  89.2965 270.8156 15.08843437 37182,6917.87,95.437,540.517,538.953,0.0
54066.0,STARLINK-5151,PAYLOAD,2023-06-19 14:42:13,15.0884183,0.0001064,53.2158,126.5954,109.8438,250.2668,-2.794e-05,-7.32e-06,0.0,0 STARLINK-5151,1 54066U 22136R   23170.61265564 -.00000732  00000-0 -27940-4 0  9993,2 54066  53.2158 126.5954 0001064 109.8438 250.2668 15.08841830 36773,6917.875,95.437,540.476,539.004,0.0
54066.0,STARLINK-5151,PAYLOAD,2023-06-20 03:25:19,15.08832159,0.0001106,53.2159,124.2165,85.9354,274.1765,0.0001095,1.455e-05,0.0,0 STARLINK-5151,1 54066U 22136R   23171.14258106  .00001455  00000-0  10950-3 0  9999,2 54066  53.2159 124.2165 0001106  85.9354 274.1765 15.08832159 37331,6917.904,95.438,540.534,539.004,0.0
54066.0,STARLINK-5151,PAYLOAD,2023-06-20 06:36:04,15.08838759,0.0001173,53.2157,123.6209,89.4245,270.6881,0.00012006,1.623e-05,0.0,0 STARLINK-5151,1 54066U 22136R   23171.27505681  .00001623  00000-0  12006-3 0  9997,2 54066  53.2157 123.6209 0001173  89.4245 270.6881 15.08838759 36873,6917.884,95.438,540.561,538.938,0.0
54066.0,STARLINK-5151,PAYLOAD,2023-06-20 20:54:31,15.08858779,0.0001163,53.2158,120.9448,88.1861,271.9264,0.00014775,2.066e-05,0.0,0 STARLINK-5151,1 54066U 22136R   23171.87120113  .00002066  00000-0  14775-3 0  9993,2 54066  53.2158 120.9448 0001163  88.1861 271.9264 15.08858779 36961,6917.823,95.436,540.493,538.883,0.0
